start=new Date('2022-12-03T00:00:00.000Z').valueOf();
sats=[{"CENTER_NAME":"EARTH","TLE_LINE1":"1 47665U 21012AX  22336.77097314 -.00000143  00000-0  92970-5 0  9999","MEAN_ELEMENT_THEORY":"SGP4","TLE_LINE2":"2 47665  53.0551   1.9046 0001626  64.9408 295.1749 15.06391689100539","MEAN_MOTION_DOT":"-0.00000143","REV_AT_EPOCH":"10053","FILE":"3679625","COUNTRY_CODE":"US","PERIOD":"95.593","EPHEMERIS_TYPE":"0","INCLINATION":"53.0551","SITE":"AFETR","ARG_OF_PERICENTER":"64.9408","PERIAPSIS":"546.113","OBJECT_ID":"2021-012AX","RA_OF_ASC_NODE":"1.9046","SEMIMAJOR_AXIS":"6925.374","RCS_SIZE":"LARGE","MEAN_ANOMALY":"295.1749","TIME_SYSTEM":"UTC","NORAD_CAT_ID":"47665","OBJECT_TYPE":"PAYLOAD","MEAN_MOTION":"15.06391689","ELEMENT_SET_NO":"999","ECCENTRICITY":"0.00016260","CLASSIFICATION_TYPE":"U","REF_FRAME":"TEME","BSTAR":"0.00000929700000","OBJECT_NAME":"STARLINK-2056","MEAN_MOTION_DDOT":"0.0000000000000","EPOCH":"2022-12-02T18:30:12.079296","GP_ID":"219380596","LAUNCH_DATE":"2021-02-16","APOAPSIS":"548.365","DECAY_DATE":null},{"PERIOD":"95.593","EPHEMERIS_TYPE":"0","INCLINATION":"53.0560","SITE":"AFETR","ARG_OF_PERICENTER":"58.6330","RA_OF_ASC_NODE":"2.2150","PERIAPSIS":"546.124","OBJECT_ID":"2021-012AY","CENTER_NAME":"EARTH","MEAN_ELEMENT_THEORY":"SGP4","TLE_LINE2":"2 47666  53.0560   2.2150 0001619  58.6330 301.4817 15.06389590100531","MEAN_MOTION_DOT":"0.00000315","REV_AT_EPOCH":"10053","TLE_LINE1":"1 47666U 21012AY  22336.76732738  .00000315  00000-0  40075-4 0  9993","COUNTRY_CODE":"US","FILE":"3679625","BSTAR":"0.00004007500000","MEAN_MOTION_DDOT":"0.0000000000000","OBJECT_NAME":"STARLINK-2057","APOAPSIS":"548.367","LAUNCH_DATE":"2021-02-16","DECAY_DATE":null,"EPOCH":"2022-12-02T18:24:57.085632","GP_ID":"219381347","SEMIMAJOR_AXIS":"6925.380","TIME_SYSTEM":"UTC","NORAD_CAT_ID":"47666","RCS_SIZE":"LARGE","MEAN_ANOMALY":"301.4817","ELEMENT_SET_NO":"999","ECCENTRICITY":"0.00016190","OBJECT_TYPE":"PAYLOAD","MEAN_MOTION":"15.06389590","REF_FRAME":"TEME","CLASSIFICATION_TYPE":"U"},{"OBJECT_NAME":"STARLINK-2058","MEAN_MOTION_DDOT":"0.0000000000000","GP_ID":"219349483","EPOCH":"2022-12-02T10:10:35.562144","DECAY_DATE":null,"LAUNCH_DATE":"2021-02-16","APOAPSIS":"548.368","BSTAR":"0.00004726000000","OBJECT_TYPE":"PAYLOAD","MEAN_MOTION":"15.06393758","ELEMENT_SET_NO":"999","ECCENTRICITY":"0.00016400","CLASSIFICATION_TYPE":"U","REF_FRAME":"TEME","SEMIMAJOR_AXIS":"6925.368","RCS_SIZE":"LARGE","MEAN_ANOMALY":"300.1900","NORAD_CAT_ID":"47667","TIME_SYSTEM":"UTC","ARG_OF_PERICENTER":"59.9251","OBJECT_ID":"2021-012AZ","PERIAPSIS":"546.097","RA_OF_ASC_NODE":"28.4053","EPHEMERIS_TYPE":"0","PERIOD":"95.593","INCLINATION":"53.0560","SITE":"AFETR","TLE_LINE1":"1 47667U 21012AZ  22336.42402271  .00000422  00000-0  47260-4 0  9995","REV_AT_EPOCH":"10011","TLE_LINE2":"2 47667  53.0560  28.4053 0001640  59.9251 300.1900 15.06393758100118","MEAN_MOTION_DOT":"0.00000422","MEAN_ELEMENT_THEORY":"SGP4","FILE":"3679245","COUNTRY_CODE":"US","CENTER_NAME":"EARTH"},{"PERIOD":"95.592","EPHEMERIS_TYPE":"0","INCLINATION":"53.0558","SITE":"AFETR","ARG_OF_PERICENTER":"78.5849","RA_OF_ASC_NODE":"6.7156","OBJECT_ID":"2021-012BA","PERIAPSIS":"546.396","CENTER_NAME":"EARTH","MEAN_ELEMENT_THEORY":"SGP4","MEAN_MOTION_DOT":"0.00000371","TLE_LINE2":"2 47668  53.0558   6.7156 0001186  78.5849 281.5273 15.06398868100475","REV_AT_EPOCH":"10047","TLE_LINE1":"1 47668U 21012BA  22336.79814555  .00000371  00000-0  43793-4 0  9998","COUNTRY_CODE":"US","FILE":"3679625","BSTAR":"0.00004379300000","MEAN_MOTION_DDOT":"0.0000000000000","OBJECT_NAME":"STARLINK-2059","APOAPSIS":"548.038","LAUNCH_DATE":"2021-02-16","DECAY_DATE":null,"EPOCH":"2022-12-02T19:09:19.775520","GP_ID":"219379846","SEMIMAJOR_AXIS":"6925.352","TIME_SYSTEM":"UTC","NORAD_CAT_ID":"47668","RCS_SIZE":"LARGE","MEAN_ANOMALY":"281.5273","ELEMENT_SET_NO":"999","ECCENTRICITY":"0.00011860","MEAN_MOTION":"15.06398868","OBJECT_TYPE":"PAYLOAD","CLASSIFICATION_TYPE":"U","REF_FRAME":"TEME"},{"ARG_OF_PERICENTER":"67.4373","RA_OF_ASC_NODE":"287.3970","PERIAPSIS":"516.448","OBJECT_ID":"2021-012BB","EPHEMERIS_TYPE":"0","PERIOD":"95.021","INCLINATION":"53.0517","SITE":"AFETR","REV_AT_EPOCH":"10101","TLE_LINE2":"2 47669  53.0517 287.3970 0004559  67.4373 292.7102 15.15457183101010","MEAN_MOTION_DOT":"0.00030565","MEAN_ELEMENT_THEORY":"SGP4","TLE_LINE1":"1 47669U 21012BB  22336.31052651  .00030565  00000-0  16059-2 0  9999","COUNTRY_CODE":"US","FILE":"3678975","CENTER_NAME":"EARTH","MEAN_MOTION_DDOT":"0.0000000000000","OBJECT_NAME":"STARLINK-2060","DECAY_DATE":null,"APOAPSIS":"522.738","LAUNCH_DATE":"2021-02-16","GP_ID":"219320961","EPOCH":"2022-12-02T07:27:09.490464","BSTAR":"0.00160590000000","ELEMENT_SET_NO":"999","ECCENTRICITY":"0.00045590","MEAN_MOTION":"15.15457183","OBJECT_TYPE":"PAYLOAD","CLASSIFICATION_TYPE":"U","REF_FRAME":"TEME","SEMIMAJOR_AXIS":"6897.728","NORAD_CAT_ID":"47669","TIME_SYSTEM":"UTC","MEAN_ANOMALY":"292.7102","RCS_SIZE":"LARGE"},{"TLE_LINE1":"1 47670U 21012BC  22336.81290234  .00001112  00000-0  93568-4 0  9995","REV_AT_EPOCH":"10046","TLE_LINE2":"2 47670  53.0552   6.6594 0002313  63.5566 296.5660 15.06391014100461","MEAN_MOTION_DOT":"0.00001112","MEAN_ELEMENT_THEORY":"SGP4","FILE":"3679625","COUNTRY_CODE":"US","CENTER_NAME":"EARTH","ARG_OF_PERICENTER":"63.5566","PERIAPSIS":"545.639","OBJECT_ID":"2021-012BC","RA_OF_ASC_NODE":"6.6594","EPHEMERIS_TYPE":"0","PERIOD":"95.593","SITE":"AFETR","INCLINATION":"53.0552","OBJECT_TYPE":"PAYLOAD","MEAN_MOTION":"15.06391014","ELEMENT_SET_NO":"999","ECCENTRICITY":"0.00023130","REF_FRAME":"TEME","CLASSIFICATION_TYPE":"U","SEMIMAJOR_AXIS":"6925.376","MEAN_ANOMALY":"296.5660","RCS_SIZE":"LARGE","NORAD_CAT_ID":"47670","TIME_SYSTEM":"UTC","OBJECT_NAME":"STARLINK-2062","MEAN_MOTION_DDOT":"0.0000000000000","GP_ID":"219380847","EPOCH":"2022-12-02T19:30:34.762176","DECAY_DATE":null,"APOAPSIS":"548.843","LAUNCH_DATE":"2021-02-16","BSTAR":"0.00009356800000"},{"CENTER_NAME":"EARTH","COUNTRY_CODE":"US","FILE":"3679625","MEAN_ELEMENT_THEORY":"SGP4","TLE_LINE2":"2 47671  53.0578   6.7245 0001435  62.6712 297.4423 15.06401267100471","MEAN_MOTION_DOT":"0.00001046","REV_AT_EPOCH":"10047","TLE_LINE1":"1 47671U 21012BD  22336.79445910  .00001046  00000-0  89115-4 0  9995","INCLINATION":"53.0578","SITE":"AFETR","PERIOD":"95.592","EPHEMERIS_TYPE":"0","RA_OF_ASC_NODE":"6.7245","OBJECT_ID":"2021-012BD","PERIAPSIS":"546.216","ARG_OF_PERICENTER":"62.6712","TIME_SYSTEM":"UTC","NORAD_CAT_ID":"47671","RCS_SIZE":"LARGE","MEAN_ANOMALY":"297.4423","SEMIMAJOR_AXIS":"6925.345","REF_FRAME":"TEME","CLASSIFICATION_TYPE":"U","ECCENTRICITY":"0.00014350","ELEMENT_SET_NO":"999","OBJECT_TYPE":"PAYLOAD","MEAN_MOTION":"15.06401267","BSTAR":"0.00008911500000","LAUNCH_DATE":"2021-02-16","APOAPSIS":"548.203","DECAY_DATE":null,"EPOCH":"2022-12-02T19:04:01.266240","GP_ID":"219381598","MEAN_MOTION_DDOT":"0.0000000000000","OBJECT_NAME":"STARLINK-2064"},{"PERIAPSIS":"546.080","OBJECT_ID":"2021-012BE","RA_OF_ASC_NODE":"356.8396","ARG_OF_PERICENTER":"61.8296","SITE":"AFETR","INCLINATION":"53.0555","PERIOD":"95.592","EPHEMERIS_TYPE":"0","FILE":"3679625","COUNTRY_CODE":"US","TLE_LINE1":"1 47672U 21012BE  22336.77326764  .00003274  00000-0  23858-3 0  9995","MEAN_ELEMENT_THEORY":"SGP4","TLE_LINE2":"2 47672  53.0555 356.8396 0001614  61.8296 298.2856 15.06405199100589","REV_AT_EPOCH":"10058","MEAN_MOTION_DOT":"0.00003274","CENTER_NAME":"EARTH","EPOCH":"2022-12-02T18:33:30.324096","GP_ID":"219380347","APOAPSIS":"548.315","LAUNCH_DATE":"2021-02-16","DECAY_DATE":null,"MEAN_MOTION_DDOT":"0.0000000000000","OBJECT_NAME":"STARLINK-2065","BSTAR":"0.00023858000000","REF_FRAME":"TEME","CLASSIFICATION_TYPE":"U","OBJECT_TYPE":"PAYLOAD","MEAN_MOTION":"15.06405199","ELEMENT_SET_NO":"999","ECCENTRICITY":"0.00016140","RCS_SIZE":"LARGE","MEAN_ANOMALY":"298.2856","TIME_SYSTEM":"UTC","NORAD_CAT_ID":"47672","SEMIMAJOR_AXIS":"6925.333"},{"ECCENTRICITY":"0.00015050","ELEMENT_SET_NO":"999","OBJECT_TYPE":"PAYLOAD","MEAN_MOTION":"15.06396513","CLASSIFICATION_TYPE":"U","REF_FRAME":"TEME","SEMIMAJOR_AXIS":"6925.359","TIME_SYSTEM":"UTC","NORAD_CAT_ID":"47673","RCS_SIZE":"LARGE","MEAN_ANOMALY":"288.1809","OBJECT_NAME":"STARLINK-2066","MEAN_MOTION_DDOT":"0.0000000000000","LAUNCH_DATE":"2021-02-16","APOAPSIS":"548.267","DECAY_DATE":null,"EPOCH":"2022-12-02T19:35:52.323648","GP_ID":"219380597","BSTAR":"0.00001825100000","MEAN_ELEMENT_THEORY":"SGP4","REV_AT_EPOCH":"10046","TLE_LINE2":"2 47673  53.0547   6.6470 0001505  71.9344 288.1809 15.06396513100461","MEAN_MOTION_DOT":"-0.00000010","TLE_LINE1":"1 47673U 21012BF  22336.81657782 -.00000010  00000-0  18251-4 0  9996","COUNTRY_CODE":"US","FILE":"3679625","CENTER_NAME":"EARTH","ARG_OF_PERICENTER":"71.9344","RA_OF_ASC_NODE":"6.6470","PERIAPSIS":"546.182","OBJECT_ID":"2021-012BF","PERIOD":"95.592","EPHEMERIS_TYPE":"0","INCLINATION":"53.0547","SITE":"AFETR"},{"CENTER_NAME":"EARTH","TLE_LINE2":"2 47674  53.0576   7.7599 0001822  52.6135 307.5019 15.06391658100435","MEAN_MOTION_DOT":"-0.00000001","REV_AT_EPOCH":"10043","MEAN_ELEMENT_THEORY":"SGP4","TLE_LINE1":"1 47674U 21012BG  22336.56499664 -.00000001  00000-0  18873-4 0  9992","COUNTRY_CODE":"US","FILE":"3679625","EPHEMERIS_TYPE":"0","PERIOD":"95.593","INCLINATION":"53.0576","SITE":"AFETR","ARG_OF_PERICENTER":"52.6135","RA_OF_ASC_NODE":"7.7599","OBJECT_ID":"2021-012BG","PERIAPSIS":"545.977","SEMIMAJOR_AXIS":"6925.374","NORAD_CAT_ID":"47674","TIME_SYSTEM":"UTC","MEAN_ANOMALY":"307.5019","RCS_SIZE":"LARGE","ELEMENT_SET_NO":"999","ECCENTRICITY":"0.00018220","MEAN_MOTION":"15.06391658","OBJECT_TYPE":"PAYLOAD","REF_FRAME":"TEME","CLASSIFICATION_TYPE":"U","BSTAR":"0.00001887300000","MEAN_MOTION_DDOT":"0.0000000000000","OBJECT_NAME":"STARLINK-2067","DECAY_DATE":null,"LAUNCH_DATE":"2021-02-16","APOAPSIS":"548.501","GP_ID":"219381348","EPOCH":"2022-12-02T13:33:35.709696"}];
